{
  "type": "FeatureCollection",
  "features": [
    {
      "type": "Feature",
      "properties": {
        "norad_id": 31330,
        "name": "FENGYUN 1C DEB",
        "group": "fengyun-1c-debris",
        "lat": -66.41550613352094,
        "lon": -58.79241110856714,
        "alt_km": 545.9378142374162,
        "timestamp": "2025-12-04T23:34:06.004398+00:00",
        "meta_object_name": "FENGYUN 1C DEB",
        "meta_object_id": "1999-025BQJ",
        "meta_epoch": "2025-12-03T16:46:11.637120",
        "meta_mean_motion": 15.06430456,
        "meta_eccentricity": 0.00102553,
        "meta_inclination": 98.8853,
        "meta_ra_of_asc_node": 140.7272,
        "meta_arg_of_pericenter": 234.7843,
        "meta_mean_anomaly": 256.8456,
        "meta_ephemeris_type": 0,
        "meta_classification_type": "U",
        "meta_norad_cat_id": 31330,
        "meta_element_set_no": 999,
        "meta_rev_at_epoch": 96993,
        "meta_bstar": 0.013855489,
        "meta_mean_motion_dot": 0.00210454,
        "meta_mean_motion_ddot": 0,
        "tle_line1": "1 31330U 99025BQJ 25337.69874580  .00210454  00000+0  13855-1 0  9990",
        "tle_line2": "2 31330  98.8853 140.7272 0010255 234.7843 256.8456 15.06430456969936"
      },
      "geometry": {
        "type": "Point",
        "coordinates": [
          -58.79241110856714,
          -66.41550613352094
        ]
      }
    },
    {
      "type": "Feature",
      "properties": {
        "norad_id": 31331,
        "name": "FENGYUN 1C DEB",
        "group": "fengyun-1c-debris",
        "lat": -64.65126349601755,
        "lon": 165.79048599794905,
        "alt_km": 870.1272026820334,
        "timestamp": "2025-12-04T23:34:06.004408+00:00",
        "meta_object_name": "FENGYUN 1C DEB",
        "meta_object_id": "1999-025BQK",
        "meta_epoch": "2025-12-03T20:40:48.549792",
        "meta_mean_motion": 14.00608302,
        "meta_eccentricity": 0.0053001,
        "meta_inclination": 98.8719,
        "meta_ra_of_asc_node": 3.9535,
        "meta_arg_of_pericenter": 207.2235,
        "meta_mean_anomaly": 152.615,
        "meta_ephemeris_type": 0,
        "meta_classification_type": "U",
        "meta_norad_cat_id": 31331,
        "meta_element_set_no": 999,
        "meta_rev_at_epoch": 63732,
        "meta_bstar": 0.00047073,
        "meta_mean_motion_dot": 6.66e-06,
        "meta_mean_motion_ddot": 0,
        "tle_line1": "1 31331U 99025BQK 25337.86167303  .00000666  00000+0  47073-3 0  9991",
        "tle_line2": "2 31331  98.8719   3.9535 0053001 207.2235 152.6150 14.00608302637325"
      },
      "geometry": {
        "type": "Point",
        "coordinates": [
          165.79048599794905,
          -64.65126349601755
        ]
      }
    },
    {
      "type": "Feature",
      "properties": {
        "norad_id": 31332,
        "name": "FENGYUN 1C DEB",
        "group": "fengyun-1c-debris",
        "lat": 66.49806535508165,
        "lon": -169.820452573722,
        "alt_km": 831.0726286705458,
        "timestamp": "2025-12-04T23:34:06.004420+00:00",
        "meta_object_name": "FENGYUN 1C DEB",
        "meta_object_id": "1999-025BQL",
        "meta_epoch": "2025-12-03T12:02:49.078752",
        "meta_mean_motion": 14.11793945,
        "meta_eccentricity": 0.00502824,
        "meta_inclination": 98.7068,
        "meta_ra_of_asc_node": 348.1092,
        "meta_arg_of_pericenter": 51.2719,
        "meta_mean_anomaly": 101.942,
        "meta_ephemeris_type": 0,
        "meta_classification_type": "U",
        "meta_norad_cat_id": 31332,
        "meta_element_set_no": 999,
        "meta_rev_at_epoch": 95841,
        "meta_bstar": 0.001211905,
        "meta_mean_motion_dot": 2.194e-05,
        "meta_mean_motion_ddot": 0,
        "tle_line1": "1 31332U 99025BQL 25337.50195693  .00002194  00000+0  12119-2 0  9996",
        "tle_line2": "2 31332  98.7068 348.1092 0050282  51.2719 101.9420 14.11793945958419"
      },
      "geometry": {
        "type": "Point",
        "coordinates": [
          -169.820452573722,
          66.49806535508165
        ]
      }
    },
    {
      "type": "Feature",
      "properties": {
        "norad_id": 31333,
        "name": "FENGYUN 1C DEB",
        "group": "fengyun-1c-debris",
        "lat": -79.92004245224203,
        "lon": 50.3792537830826,
        "alt_km": 859.5646651889256,
        "timestamp": "2025-12-04T23:34:06.004430+00:00",
        "meta_object_name": "FENGYUN 1C DEB",
        "meta_object_id": "1999-025BQM",
        "meta_epoch": "2025-11-27T18:34:18.195744",
        "meta_mean_motion": 14.2646395,
        "meta_eccentricity": 0.00993772,
        "meta_inclination": 98.4299,
        "meta_ra_of_asc_node": 346.9035,
        "meta_arg_of_pericenter": 70.1894,
        "meta_mean_anomaly": 290.9968,
        "meta_ephemeris_type": 0,
        "meta_classification_type": "U",
        "meta_norad_cat_id": 31333,
        "meta_element_set_no": 999,
        "meta_rev_at_epoch": 96378,
        "meta_bstar": 0.00071340675,
        "meta_mean_motion_dot": 1.769e-05,
        "meta_mean_motion_ddot": 0,
        "tle_line1": "1 31333U 99025BQM 25331.77382171  .00001769  00000+0  71341-3 0  9999",
        "tle_line2": "2 31333  98.4299 346.9035 0099377  70.1894 290.9968 14.26463950963786"
      },
      "geometry": {
        "type": "Point",
        "coordinates": [
          50.3792537830826,
          -79.92004245224203
        ]
      }
    },
    {
      "type": "Feature",
      "properties": {
        "norad_id": 31336,
        "name": "FENGYUN 1C DEB",
        "group": "fengyun-1c-debris",
        "lat": 41.698889493572274,
        "lon": 26.68971358789166,
        "alt_km": 769.5907060443951,
        "timestamp": "2025-12-04T23:34:06.004440+00:00",
        "meta_object_name": "FENGYUN 1C DEB",
        "meta_object_id": "1999-025BQQ",
        "meta_epoch": "2025-12-03T02:26:40.162272",
        "meta_mean_motion": 14.38666089,
        "meta_eccentricity": 0.00937673,
        "meta_inclination": 98.4662,
        "meta_ra_of_asc_node": 32.4606,
        "meta_arg_of_pericenter": 147.1631,
        "meta_mean_anomaly": 244.128,
        "meta_ephemeris_type": 0,
        "meta_classification_type": "U",
        "meta_norad_cat_id": 31336,
        "meta_element_set_no": 999,
        "meta_rev_at_epoch": 97652,
        "meta_bstar": 0.00045621257,
        "meta_mean_motion_dot": 1.427e-05,
        "meta_mean_motion_ddot": 0,
        "tle_line1": "1 31336U 99025BQQ 25337.10185373  .00001427  00000+0  45621-3 0  9993",
        "tle_line2": "2 31336  98.4662  32.4606 0093767 147.1631 244.1280 14.38666089976520"
      },
      "geometry": {
        "type": "Point",
        "coordinates": [
          26.68971358789166,
          41.698889493572274
        ]
      }
    },
    {
      "type": "Feature",
      "properties": {
        "norad_id": 31338,
        "name": "FENGYUN 1C DEB",
        "group": "fengyun-1c-debris",
        "lat": 57.75960241144491,
        "lon": 13.173392746207787,
        "alt_km": 767.2358642879726,
        "timestamp": "2025-12-04T23:34:06.004452+00:00",
        "meta_object_name": "FENGYUN 1C DEB",
        "meta_object_id": "1999-025BQS",
        "meta_epoch": "2025-12-01T07:05:57.780096",
        "meta_mean_motion": 14.20532057,
        "meta_eccentricity": 0.00715092,
        "meta_inclination": 98.7164,
        "meta_ra_of_asc_node": 175.4621,
        "meta_arg_of_pericenter": 142.709,
        "meta_mean_anomaly": 217.9082,
        "meta_ephemeris_type": 0,
        "meta_classification_type": "U",
        "meta_norad_cat_id": 31338,
        "meta_element_set_no": 999,
        "meta_rev_at_epoch": 63495,
        "meta_bstar": 0.0029930987,
        "meta_mean_motion_dot": 6.56e-05,
        "meta_mean_motion_ddot": 0,
        "tle_line1": "1 31338U 99025BQS 25335.29580764  .00006560  00000+0  29931-2 0  9994",
        "tle_line2": "2 31338  98.7164 175.4621 0071509 142.7090 217.9082 14.20532057634951"
      },
      "geometry": {
        "type": "Point",
        "coordinates": [
          13.173392746207787,
          57.75960241144491
        ]
      }
    },
    {
      "type": "Feature",
      "properties": {
        "norad_id": 31339,
        "name": "FENGYUN 1C DEB",
        "group": "fengyun-1c-debris",
        "lat": 21.03322012264409,
        "lon": -7.519106462674238,
        "alt_km": 807.0278073536338,
        "timestamp": "2025-12-04T23:34:06.004464+00:00",
        "meta_object_name": "FENGYUN 1C DEB",
        "meta_object_id": "1999-025BQT",
        "meta_epoch": "2025-12-03T18:33:38.101824",
        "meta_mean_motion": 14.12120001,
        "meta_eccentricity": 0.0074571,
        "meta_inclination": 98.7147,
        "meta_ra_of_asc_node": 354.6873,
        "meta_arg_of_pericenter": 350.9755,
        "meta_mean_anomaly": 9.0072,
        "meta_ephemeris_type": 0,
        "meta_classification_type": "U",
        "meta_norad_cat_id": 31339,
        "meta_element_set_no": 999,
        "meta_rev_at_epoch": 95551,
        "meta_bstar": 0.0012987262,
        "meta_mean_motion_dot": 2.403e-05,
        "meta_mean_motion_ddot": 0,
        "tle_line1": "1 31339U 99025BQT 25337.77335766  .00002403  00000+0  12987-2 0  9995",
        "tle_line2": "2 31339  98.7147 354.6873 0074571 350.9755   9.0072 14.12120001955516"
      },
      "geometry": {
        "type": "Point",
        "coordinates": [
          -7.519106462674238,
          21.03322012264409
        ]
      }
    }
  ]
}